{"type": "FeatureCollection", "features": [ {"type": "Feature", "properties": {"norad_id": 40799, "name": "COSMOS 2251 DEB", "group": "cosmos-2251-debris", "lat": 24.669698151464743, "lon": 88.51415065629011, "alt_km": 539.9478960453289, "timestamp": "2025-12-21T07:34:34.912522+00:00", "meta": {"OBJECT_NAME": "COSMOS 2251 DEB", "OBJECT_ID": "1993-036BWC", "EPOCH": "2025-12-19T23:22:48.331200", "MEAN_MOTION": 14.96721244, "ECCENTRICITY": 0.0119254, "INCLINATION": 73.9272, "RA_OF_ASC_NODE": 83.6344, "ARG_OF_PERICENTER": 324.0536, "MEAN_ANOMALY": 35.2666, "EPHEMERIS_TYPE": 0, "CLASSIFICATION_TYPE": "U", "NORAD_CAT_ID": 40799, "ELEMENT_SET_NO": 999, "REV_AT_EPOCH": 50085, "BSTAR": 0.00020522528, "MEAN_MOTION_DOT": 2.662e-05, "MEAN_MOTION_DDOT": 0}, "tle": {"line1": "1 40799U 93036BWC 25353.97417050  .00002662  00000+0  20523-3 0  9991", "line2": "2 40799  73.9272  83.6344 0119254 324.0536  35.2666 14.96721244500850"}}, "geometry": {"type": "Point", "coordinates": [88.51415065629011, 24.669698151464743]}}, {"type": "Feature", "properties": {"norad_id": 40802, "name": "COSMOS 2251 DEB", "group": "cosmos-2251-debris", "lat": -22.60595362960103, "lon": -36.96974899733892, "alt_km": 603.3173979894691, "timestamp": "2025-12-21T07:34:34.912531+00:00", "meta": {"OBJECT_NAME": "COSMOS 2251 DEB", "OBJECT_ID": "1993-036BWF", "EPOCH": "2025-12-20T16:01:50.950848", "MEAN_MOTION": 14.77686845, "ECCENTRICITY": 0.00629069, "INCLINATION": 74.0403, "RA_OF_ASC_NODE": 137.4571, "ARG_OF_PERICENTER": 234.6618, "MEAN_ANOMALY": 124.8667, "EPHEMERIS_TYPE": 0, "CLASSIFICATION_TYPE": "U", "NORAD_CAT_ID": 40802, "ELEMENT_SET_NO": 999, "REV_AT_EPOCH": 64526, "BSTAR": 0.0005156342, "MEAN_MOTION_DOT": 3.783e-05, "MEAN_MOTION_DDOT": 0}, "tle": {"line1": "1 40802U 93036BWF 25354.66795082  .00003783  00000+0  51563-3 0  9990", "line2": "2 40802  74.0403 137.4571 0062906 234.6618 124.8667 14.77686845645268"}}, "geometry": {"type": "Point", "coordinates": [-36.96974899733892, -22.60595362960103]}}, {"type": "Feature", "properties": {"norad_id": 40803, "name": "COSMOS 2251 DEB", "group": "cosmos-2251-debris", "lat": -29.197630725191047, "lon": 26.51268058164893, "alt_km": 720.4751167468949, "timestamp": "2025-12-21T07:34:34.912540+00:00", "meta": {"OBJECT_NAME": "COSMOS 2251 DEB", "OBJECT_ID": "1993-036BWG", "EPOCH": "2025-12-18T13:33:58.856256", "MEAN_MOTION": 14.51832386, "ECCENTRICITY": 0.00340447, "INCLINATION": 74.0153, "RA_OF_ASC_NODE": 40.9148, "ARG_OF_PERICENTER": 256.5349, "MEAN_ANOMALY": 103.2017, "EPHEMERIS_TYPE": 0, "CLASSIFICATION_TYPE": "U", "NORAD_CAT_ID": 40803, "ELEMENT_SET_NO": 999, "REV_AT_EPOCH": 58837, "BSTAR": 0.00023751295, "MEAN_MOTION_DOT": 9.34e-06, "MEAN_MOTION_DDOT": 0}, "tle": {"line1": "1 40803U 93036BWG 25352.56526454  .00000934  00000+0  23751-3 0  9996", "line2": "2 40803  74.0153  40.9148 0034044 256.5349 103.2017 14.51832386588378"}}, "geometry": {"type": "Point", "coordinates": [26.51268058164893, -29.197630725191047]}}, {"type": "Feature", "properties": {"norad_id": 40808, "name": "COSMOS 2251 DEB", "group": "cosmos-2251-debris", "lat": 8.73064079675331, "lon": 131.435188483956, "alt_km": 675.676930865141, "timestamp": "2025-12-21T07:34:34.912549+00:00", "meta": {"OBJECT_NAME": "COSMOS 2251 DEB", "OBJECT_ID": "1993-036BWM", "EPOCH": "2025-12-18T11:05:09.828384", "MEAN_MOTION": 14.67577712, "ECCENTRICITY": 0.00086916, "INCLINATION": 74.0411, "RA_OF_ASC_NODE": 134.4242, "ARG_OF_PERICENTER": 170.7227, "MEAN_ANOMALY": 247.3074, "EPHEMERIS_TYPE": 0, "CLASSIFICATION_TYPE": "U", "NORAD_CAT_ID": 40808, "ELEMENT_SET_NO": 999, "REV_AT_EPOCH": 63703, "BSTAR": 0.0013644705, "MEAN_MOTION_DOT": 7.729e-05, "MEAN_MOTION_DDOT": 0}, "tle": {"line1": "1 40808U 93036BWM 25352.46191931  .00007729  00000+0  13645-2 0  9997", "line2": "2 40808  74.0411 134.4242 0008691 170.7227 247.3074 14.67577712637032"}}, "geometry": {"type": "Point", "coordinates": [131.435188483956, 8.73064079675331]}}, {"type": "Feature", "properties": {"norad_id": 40810, "name": "COSMOS 2251 DEB", "group": "cosmos-2251-debris", "lat": 14.296210519475448, "lon": 62.58822740429303, "alt_km": 710.1896942734684, "timestamp": "2025-12-21T07:34:34.912559+00:00", "meta": {"OBJECT_NAME": "COSMOS 2251 DEB", "OBJECT_ID": "1993-036BWP", "EPOCH": "2025-12-20T21:37:57.746784", "MEAN_MOTION": 14.58766963, "ECCENTRICITY": 0.00181228, "INCLINATION": 74.0366, "RA_OF_ASC_NODE": 59.1939, "ARG_OF_PERICENTER": 210.007, "MEAN_ANOMALY": 150.0058, "EPHEMERIS_TYPE": 0, "CLASSIFICATION_TYPE": "U", "NORAD_CAT_ID": 40810, "ELEMENT_SET_NO": 999, "REV_AT_EPOCH": 61802, "BSTAR": 0.00043511695, "MEAN_MOTION_DOT": 2.008e-05, "MEAN_MOTION_DDOT": 0}, "tle": {"line1": "1 40810U 93036BWP 25354.90136281  .00002008  00000+0  43512-3 0  9990", "line2": "2 40810  74.0366  59.1939 0018122 210.0070 150.0058 14.58766963618022"}}, "geometry": {"type": "Point", "coordinates": [62.58822740429303, 14.296210519475448]}}, {"type": "Feature", "properties": {"norad_id": 46271, "name": "COSMOS 2251 DEB", "group": "cosmos-2251-debris", "lat": 27.424740716349145, "lon": 70.6201796569239, "alt_km": 744.6893035306748, "timestamp": "2025-12-21T07:34:34.912568+00:00", "meta": {"OBJECT_NAME": "COSMOS 2251 DEB", "OBJECT_ID": "1993-036BWT", "EPOCH": "2025-12-19T22:21:35.328960", "MEAN_MOTION": 14.51444335, "ECCENTRICITY": 0.003987, "INCLINATION": 74.0479, "RA_OF_ASC_NODE": 64.6869, "ARG_OF_PERICENTER": 184.8218, "MEAN_ANOMALY": 175.2565, "EPHEMERIS_TYPE": 0, "CLASSIFICATION_TYPE": "U", "NORAD_CAT_ID": 46271, "ELEMENT_SET_NO": 999, "REV_AT_EPOCH": 84746, "BSTAR": 0.00020357, "MEAN_MOTION_DOT": 7.93e-06, "MEAN_MOTION_DDOT": 0}, "tle": {"line1": "1 46271U 93036BWT 25353.93165890  .00000793  00000+0  20357-3 0  9998", "line2": "2 46271  74.0479  64.6869 0039870 184.8218 175.2565 14.51444335847465"}}, "geometry": {"type": "Point", "coordinates": [70.6201796569239, 27.424740716349145]}}, {"type": "Feature", "properties": {"norad_id": 46430, "name": "COSMOS 2251 DEB", "group": "cosmos-2251-debris", "lat": 73.85597887247275, "lon": 74.61893071876052, "alt_km": 785.1130675148561, "timestamp": "2025-12-21T07:34:34.912577+00:00", "meta": {"OBJECT_NAME": "COSMOS 2251 DEB", "OBJECT_ID": "1993-036BWU", "EPOCH": "2025-12-19T07:10:40.968192", "MEAN_MOTION": 14.51392906, "ECCENTRICITY": 0.0103211, "INCLINATION": 73.9139, "RA_OF_ASC_NODE": 343.9071, "ARG_OF_PERICENTER": 263.0684, "MEAN_ANOMALY": 95.8727, "EPHEMERIS_TYPE": 0, "CLASSIFICATION_TYPE": "U", "NORAD_CAT_ID": 46430, "ELEMENT_SET_NO": 999, "REV_AT_EPOCH": 79778, "BSTAR": 0.0013871, "MEAN_MOTION_DOT": 5.902e-05, "MEAN_MOTION_DDOT": 0}, "tle": {"line1": "1 46430U 93036BWU 25353.29908528  .00005902  00000+0  13871-2 0  9996", "line2": "2 46430  73.9139 343.9071 0103211 263.0684  95.8727 14.51392906797781"}}, "geometry": {"type": "Point", "coordinates": [74.61893071876052, 73.85597887247275]}}, {"type": "Feature", "properties": {"norad_id": 46432, "name": "COSMOS 2251 DEB", "group": "cosmos-2251-debris", "lat": -67.94543994501319, "lon": 52.210394134004794, "alt_km": 1000.1655367179319, "timestamp": "2025-12-21T07:34:34.912586+00:00", "meta": {"OBJECT_NAME": "COSMOS 2251 DEB", "OBJECT_ID": "1993-036BWW", "EPOCH": "2025-12-16T14:54:01.415808", "MEAN_MOTION": 13.36645779, "ECCENTRICITY": 0.04740577, "INCLINATION": 73.8726, "RA_OF_ASC_NODE": 105.1782, "ARG_OF_PERICENTER": 222.0894, "MEAN_ANOMALY": 155.0222, "EPHEMERIS_TYPE": 0, "CLASSIFICATION_TYPE": "U", "NORAD_CAT_ID": 46432, "ELEMENT_SET_NO": 999, "REV_AT_EPOCH": 67018, "BSTAR": 0.0010887976, "MEAN_MOTION_DOT": 1.051e-05, "MEAN_MOTION_DDOT": 0}, "tle": {"line1": "1 46432U 93036BWW 25350.62084972  .00001051  00000+0  10888-2 0  9996", "line2": "2 46432  73.8726 105.1782 0474057 222.0894 155.0222 13.36645779670182"}}, "geometry": {"type": "Point", "coordinates": [52.210394134004794, -67.94543994501319]}}, {"type": "Feature", "properties": {"norad_id": 47045, "name": "COSMOS 2251 DEB", "group": "cosmos-2251-debris", "lat": -54.58760098488271, "lon": -22.918328597941194, "alt_km": 750.8977132981117, "timestamp": "2025-12-21T07:34:34.912595+00:00", "meta": {"OBJECT_NAME": "COSMOS 2251 DEB", "OBJECT_ID": "1993-036BWZ", "EPOCH": "2025-12-08T18:12:30.966336", "MEAN_MOTION": 14.3889696, "ECCENTRICITY": 0.00302024, "INCLINATION": 74.0568, "RA_OF_ASC_NODE": 156.4972, "ARG_OF_PERICENTER": 298.2595, "MEAN_ANOMALY": 80.2379, "EPHEMERIS_TYPE": 0, "CLASSIFICATION_TYPE": "U", "NORAD_CAT_ID": 47045, "ELEMENT_SET_NO": 999, "REV_AT_EPOCH": 7748, "BSTAR": 0.00016053941, "MEAN_MOTION_DOT": 4.71e-06, "MEAN_MOTION_DDOT": 0}, "tle": {"line1": "1 47045U 93036BWZ 25342.75869174  .00000471  00000+0  16054-3 0  9994", "line2": "2 47045  74.0568 156.4972 0030202 298.2595  80.2379 14.38896960 77482"}}, "geometry": {"type": "Point", "coordinates": [-22.918328597941194, -54.58760098488271]}}, {"type": "Feature", "properties": {"norad_id": 47048, "name": "COSMOS 2251 DEB", "group": "cosmos-2251-debris", "lat": -38.424779895146536, "lon": 136.13432165962632, "alt_km": 725.2591091552595, "timestamp": "2025-12-21T07:34:34.912604+00:00", "meta": {"OBJECT_NAME": "COSMOS 2251 DEB", "OBJECT_ID": "1993-036BXC", "EPOCH": "2025-12-19T13:47:33.177120", "MEAN_MOTION": 14.52356803, "ECCENTRICITY": 0.0132576, "INCLINATION": 73.9784, "RA_OF_ASC_NODE": 306.2511, "ARG_OF_PERICENTER": 132.3729, "MEAN_ANOMALY": 347.2197, "EPHEMERIS_TYPE": 0, "CLASSIFICATION_TYPE": "U", "NORAD_CAT_ID": 47048, "ELEMENT_SET_NO": 999, "REV_AT_EPOCH": 59789, "BSTAR": 0.00066595, "MEAN_MOTION_DOT": 3.012e-05, "MEAN_MOTION_DDOT": 0}, "tle": {"line1": "1 47048U 93036BXC 25353.57468955  .00003012  00000+0  66595-3 0  9990", "line2": "2 47048  73.9784 306.2511 0132576 132.3729 347.2197 14.52356803597890"}}, "geometry": {"type": "Point", "coordinates": [136.13432165962632, -38.424779895146536]}}]}